NORAD_CAT_ID,OBJECT_NAME,OBJECT_TYPE,EPOCH,MEAN_MOTION,ECCENTRICITY,INCLINATION,RA_OF_ASC_NODE,ARG_OF_PERICENTER,MEAN_ANOMALY,BSTAR,MEAN_MOTION_DOT,MEAN_MOTION_DDOT,TLE_LINE0,TLE_LINE1,TLE_LINE2,SEMIMAJOR_AXIS,PERIOD,APOGEE,PERIGEE,DECAYED
51978.0,STARLINK-3666,PAYLOAD,2022-11-24 20:58:48,15.08837158,0.0002056,53.2184,29.789,39.5165,320.5977,-5.0505e-05,-1.092e-05,0.0,0 STARLINK-3666,1 51978U 22025Y   22328.87417107 -.00001092  00000-0 -50505-4 0  9996,2 51978  53.2184  29.7890 0002056  39.5165 320.5977 15.08837158 40869,6917.889,95.438,541.1759999999998,538.332,0.0
51978.0,STARLINK-3666,PAYLOAD,2022-11-25 11:17:16,15.08845251,0.0002127,53.2186,27.113000000000003,38.7981,321.3163,0.00027979,4.168e-05,0.0,0 STARLINK-3666,1 51978U 22025Y   22329.47033075  .00004168  00000-0  27979-3 0  9994,2 51978  53.2186  27.1130 0002127  38.7981 321.3163 15.08845251 39863,6917.864000000001,95.437,541.201,538.258,0.0
51978.0,STARLINK-3666,PAYLOAD,2022-11-26 03:11:08,15.08842536,0.0002103,53.2184,24.1396,39.8224,320.2922,0.00018633,2.679e-05,0.0,0 STARLINK-3666,1 51978U 22025Y   22330.13273360  .00002679  00000-0  18633-3 0  9994,2 51978  53.2184  24.1396 0002103  39.8224 320.2922 15.08842536 41056,6917.873000000001,95.437,541.192,538.283,0.0
51978.0,STARLINK-3666,PAYLOAD,2022-11-26 12:43:26,15.08849582,0.000216,53.2182,22.3556,39.3013,320.8135,0.00036201,5.479e-05,0.0,0 STARLINK-3666,1 51978U 22025Y   22330.53017109  .00005479  00000-0  36201-3 0  9997,2 51978  53.2182  22.3556 0002160  39.3013 320.8135 15.08849582 40022,6917.851,95.437,541.21,538.222,0.0
51978.0,STARLINK-3666,PAYLOAD,2022-11-26 20:40:22,15.0885604,0.0002166,53.2182,20.8689,40.4455,319.6698,0.00044884,6.866e-05,0.0,0 STARLINK-3666,1 51978U 22025Y   22330.86136738  .00006866  00000-0  44884-3 0  9990,2 51978  53.2182  20.8689 0002166  40.4455 319.6698 15.08856040 40073,6917.831,95.437,541.195,538.198,0.0
51978.0,STARLINK-3666,PAYLOAD,2022-11-27 12:34:13,15.08836048,0.0001794,53.2185,17.8944,38.8072,321.3049,-6.175600000000001e-05,-1.271e-05,0.0,0 STARLINK-3666,1 51978U 22025Y   22331.52377053 -.00001271  00000-0 -61756-4 0  9996,2 51978  53.2185  17.8944 0001794  38.8072 321.3049 15.08836048 41266,6917.892,95.438,540.999,538.516,0.0
51978.0,STARLINK-3666,PAYLOAD,2022-11-27 20:31:09,15.08838047,0.0001801,53.218,16.4059,38.6637,321.4484,6.2966e-05,7.14e-06,0.0,0 STARLINK-3666,1 51978U 22025Y   22331.85497134  .00000714  00000-0  62966-4 0  9998,2 51978  53.2180  16.4059 0001801  38.6637 321.4484 15.08838047 40227,6917.886,95.438,540.997,538.505,0.0
51978.0,STARLINK-3666,PAYLOAD,2022-11-28 09:14:15,15.0883198,0.0002012,53.2181,14.0285,36.2438,323.869,-4.808600000000002e-05,-1.053e-05,0.0,0 STARLINK-3666,1 51978U 22025Y   22332.38489843 -.00001053  00000-0 -48086-4 0  9991,2 51978  53.2181  14.0285 0002012  36.2438 323.8690 15.08831980 40304,6917.905,95.438,541.1619999999998,538.378,0.0
51978.0,STARLINK-3666,PAYLOAD,2022-11-29 02:43:29,15.08843839,0.0002043,53.2183,10.7578,35.9421,324.1709,0.0003628999999999,5.493e-05,0.0,0 STARLINK-3666,1 51978U 22025Y   22333.11353815  .00005493  00000-0  36290-3 0  9995,2 51978  53.2183  10.7578 0002043  35.9421 324.1709 15.08843839 41500,6917.869000000002,95.437,541.1469999999998,538.32,0.0
51978.0,STARLINK-3666,PAYLOAD,2022-11-29 09:05:02,15.08849995,0.0002125,53.218,9.5683,35.2592,324.8540000000001,0.00051443,7.911e-05,0.0,0 STARLINK-3666,1 51978U 22025Y   22333.37849680  .00007911  00000-0  51443-3 0  9997,2 51978  53.2180   9.5683 0002125  35.2592 324.8540 15.08849995 40455,6917.85,95.437,541.185,538.245,0.0
51978.0,STARLINK-3666,PAYLOAD,2022-11-30 02:34:17,15.08835008,0.0002253,53.2175,6.297999999999999,33.2604,326.8529,3.9705e-05,3.44e-06,0.0,0 STARLINK-3666,1 51978U 22025Y   22334.10714239  .00000344  00000-0  39705-4 0  9991,2 51978  53.2175   6.2980 0002253  33.2604 326.8529 15.08835008 41659,6917.896,95.438,541.319,538.202,0.0
51978.0,STARLINK-3666,PAYLOAD,2022-11-30 12:06:36,15.08833887,0.0002209,53.218,4.5139,35.7627,324.3513,0.00010676,1.411e-05,0.0,0 STARLINK-3666,1 51978U 22025Y   22334.50458530  .00001411  00000-0  10676-3 0  9995,2 51978  53.2180   4.5139 0002209  35.7627 324.3513 15.08833887 40620,6917.899,95.438,541.2919999999998,538.236,0.0
51978.0,STARLINK-3666,PAYLOAD,2022-12-01 11:57:22,15.08840734,0.0002186,53.2183,0.0531,33.1021,327.0108,5.537600000000001e-05,5.93e-06,0.0,0 STARLINK-3666,1 51978U 22025Y   22335.49818278  .00000593  00000-0  55376-4 0  9990,2 51978  53.2183   0.0531 0002186  33.1021 327.0108 15.08840734 40779,6917.878000000002,95.438,541.255,538.231,0.0
51978.0,STARLINK-3666,PAYLOAD,2022-12-01 18:18:55,15.08845792,0.0002214,53.2182,358.8638,33.94,326.1733,0.00011248,1.503e-05,0.0,0 STARLINK-3666,1 51978U 22025Y   22335.76314033  .00001503  00000-0  11248-3 0  9991,2 51978  53.2182 358.8638 0002214  33.9400 326.1733 15.08845792 41900,6917.863,95.437,541.259,538.196,0.0
51978.0,STARLINK-3666,PAYLOAD,2022-12-02 11:48:10,15.08838178,0.0002265,53.2185,355.5927,35.2844,324.8297,0.00010353,1.36e-05,0.0,0 STARLINK-3666,1 51978U 22025Y   22336.49178552  .00001360  00000-0  10353-3 0  9993,2 51978  53.2185 355.5927 0002265  35.2844 324.8297 15.08838178 42014,6917.886,95.438,541.318,538.184,0.0
51978.0,STARLINK-3666,PAYLOAD,2022-12-02 18:09:42,15.08840283,0.0002274,53.2184,354.4034,35.8304,324.284,8.6369e-05,1.087e-05,0.0,0 STARLINK-3666,1 51978U 22025Y   22336.75674438  .00001087  00000-0  86369-4 0  9993,2 51978  53.2184 354.4034 0002274  35.8304 324.2840 15.08840283 40967,6917.88,95.438,541.318,538.1709999999998,0.0
51978.0,STARLINK-3666,PAYLOAD,2022-12-03 02:06:38,15.08830063,0.0002232,53.219,352.9166,41.3193,318.7968,-1.5181e-05,-5.3e-06,0.0,0 STARLINK-3666,1 51978U 22025Y   22337.08795031 -.00000530  00000-0 -15181-4 0  9991,2 51978  53.2190 352.9166 0002232  41.3193 318.7968 15.08830063 42107,6917.911,95.438,541.32,538.232,0.0
51978.0,STARLINK-3666,PAYLOAD,2022-12-03 11:38:57,15.08834483,0.000226,53.2193,351.1323,41.4249,318.6915,-3.2641e-06,-3.4e-06,0.0,0 STARLINK-3666,1 51978U 22025Y   22337.48539348 -.00000340  00000-0 -32641-5 0  9992,2 51978  53.2193 351.1323 0002260  41.4249 318.6915 15.08834483 41076,6917.897,95.438,541.326,538.1990000000002,0.0
51978.0,STARLINK-3666,PAYLOAD,2022-12-03 18:00:30,15.08840022,0.000232,53.219,349.9430000000001,36.8076,323.3075,7.4201e-05,8.93e-06,0.0,0 STARLINK-3666,1 51978U 22025Y   22337.75034934  .00000893  00000-0  74201-4 0  9991,2 51978  53.2190 349.9430 0002320  36.8076 323.3075 15.08840022 42202,6917.88,95.438,541.35,538.14,0.0
51978.0,STARLINK-3666,PAYLOAD,2022-12-04 13:05:08,15.08835652,0.0002617,53.2193,346.3749,37.8472,322.2704,7.7689e-05,9.48e-06,0.0,0 STARLINK-3666,1 51978U 22025Y   22338.54523342  .00000948  00000-0  77689-4 0  9999,2 51978  53.2193 346.3749 0002617  37.8472 322.2704 15.08835652 41231,6917.894,95.438,541.569,537.948,0.0
51978.0,STARLINK-3666,PAYLOAD,2022-12-04 17:51:17,15.08837782,0.0002449,53.2187,345.483,39.5086,320.6085,6.9606e-05,8.2e-06,0.0,0 STARLINK-3666,1 51978U 22025Y   22338.74395191  .00000820  00000-0  69606-4 0  9999,2 51978  53.2187 345.4830 0002449  39.5086 320.6085 15.08837782 41261,6917.887,95.438,541.446,538.058,0.0
51978.0,STARLINK-3666,PAYLOAD,2022-12-05 01:48:12,15.088410199999998,0.0002288,53.2194,343.9956,34.8021,325.312,0.00022087,3.229e-05,0.0,0 STARLINK-3666,1 51978U 22025Y   22339.07514791  .00003229  00000-0  22087-3 0  9992,2 51978  53.2194 343.9956 0002288  34.8021 325.3120 15.08841020 42408,6917.877,95.437,541.325,538.159,0.0
51978.0,STARLINK-3666,PAYLOAD,2022-12-05 06:34:21,15.08850357,0.0002382,53.2182,343.1035,36.8781,323.2375,0.00032561,4.899e-05,0.0,0 STARLINK-3666,1 51978U 22025Y   22339.27386442  .00004899  00000-0  32561-3 0  9996,2 51978  53.2182 343.1035 0002382  36.8781 323.2375 15.08850357 41349,6917.849,95.437,541.362,538.066,0.0
51978.0,STARLINK-3666,PAYLOAD,2022-12-05 17:42:04,15.08844886,0.0002367,53.2185,341.0222,36.6052,323.5102,0.00012213,1.656e-05,0.0,0 STARLINK-3666,1 51978U 22025Y   22339.73754632  .00001656  00000-0  12213-3 0  9997,2 51978  53.2185 341.0222 0002367  36.6052 323.5102 15.08844886 41418,6917.865,95.437,541.368,538.0930000000002,0.0
51978.0,STARLINK-3666,PAYLOAD,2022-12-06 06:25:08,15.0884886,0.0002417,53.2174,338.6426,33.5486,326.5658,0.00010329,1.356e-05,0.0,0 STARLINK-3666,1 51978U 22025Y   22340.26746100  .00001356  00000-0  10329-3 0  9991,2 51978  53.2174 338.6426 0002417  33.5486 326.5658 15.08848860 42581,6917.853,95.437,541.39,538.0459999999998,0.0
51978.0,STARLINK-3666,PAYLOAD,2022-12-06 11:11:18,15.08838342,0.0002495,53.2181,337.7509,37.8207,322.296,-7.7525e-05,-1.522e-05,0.0,0 STARLINK-3666,1 51978U 22025Y   22340.46618649 -.00001522  00000-0 -77525-4 0  9998,2 51978  53.2181 337.7509 0002495  37.8207 322.2960 15.08838342 42612,6917.885,95.438,541.476,538.024,0.0
51978.0,STARLINK-3666,PAYLOAD,2022-12-06 17:32:51,15.08835964,0.0002491,53.2176,336.5619999999999,37.6365,322.4801,1.3315e-05,-7.7e-07,0.0,0 STARLINK-3666,1 51978U 22025Y   22340.73114824 -.00000077  00000-0  13315-4 0  9994,2 51978  53.2176 336.5620 0002491  37.6365 322.4801 15.08835964 41562,6917.893,95.438,541.481,538.034,0.0
51978.0,STARLINK-3666,PAYLOAD,2022-12-07 11:02:07,15.08819368,0.0002583,53.2193,333.2916,35.7573,324.3591,-0.00022443,-3.857e-05,0.0,0 STARLINK-3666,1 51978U 22025Y   22341.45980885 -.00003857  00000-0 -22443-3 0  9993,2 51978  53.2193 333.2916 0002583  35.7573 324.3591 15.08819368 42765,6917.943,95.439,541.595,538.0219999999998,0.0
51978.0,STARLINK-3666,PAYLOAD,2022-12-08 01:20:34,15.088340900000002,0.0002134,53.2183,330.6137,33.0612,327.0513,-6.2792e-05,-1.287e-05,0.0,0 STARLINK-3666,1 51978U 22025Y   22342.05595871 -.00001287  00000-0 -62792-4 0  9994,2 51978  53.2183 330.6137 0002134  33.0612 327.0513 15.08834090 42850,6917.898,95.438,541.24,538.2869999999998,0.0
